CCSDS_OMM_VERS = 2.0
CREATION_DATE  = 
ORIGINATOR     = 

OBJECT_NAME    = KUIPER-00266
OBJECT_ID      = 2026-030AB
CENTER_NAME    = EARTH
REF_FRAME      = TEME
TIME_SYSTEM    = UTC
MEAN_ELEMENT_THEORY = SGP/SGP4

EPOCH          = 2026-03-13T08:27:33.450336
MEAN_MOTION    = 15.30698300
ECCENTRICITY   = .00231426
INCLINATION    = 51.8821
RA_OF_ASC_NODE = 202.3428
ARG_OF_PERICENTER = 86.9135
MEAN_ANOMALY   = 273.4497

EPHEMERIS_TYPE = 0
CLASSIFICATION_TYPE = U
NORAD_CAT_ID   = 67789
ELEMENT_SET_NO = 999
REV_AT_EPOCH   = 564
BSTAR          = .98696827E-3
MEAN_MOTION_DOT = .297E-3
MEAN_MOTION_DDOT = 0

CCSDS_OMM_VERS = 2.0
CREATION_DATE  = 
ORIGINATOR     = 

OBJECT_NAME    = KUIPER-00268
OBJECT_ID      = 2026-030AC
CENTER_NAME    = EARTH
REF_FRAME      = TEME
TIME_SYSTEM    = UTC
MEAN_ELEMENT_THEORY = SGP/SGP4

EPOCH          = 2026-03-12T17:59:13.194528
MEAN_MOTION    = 15.36176538
ECCENTRICITY   = .00025798
INCLINATION    = 51.8845
RA_OF_ASC_NODE = 204.3408
ARG_OF_PERICENTER = 44.1237
MEAN_ANOMALY   = 315.9955

EPHEMERIS_TYPE = 0
CLASSIFICATION_TYPE = U
NORAD_CAT_ID   = 67790
ELEMENT_SET_NO = 999
REV_AT_EPOCH   = 556
BSTAR          = .10035921E-2
MEAN_MOTION_DOT = .3571E-3
MEAN_MOTION_DDOT = 0

CCSDS_OMM_VERS = 2.0
CREATION_DATE  = 
ORIGINATOR     = 

OBJECT_NAME    = KUIPER-00270
OBJECT_ID      = 2026-030AD
CENTER_NAME    = EARTH
REF_FRAME      = TEME
TIME_SYSTEM    = UTC
MEAN_ELEMENT_THEORY = SGP/SGP4

EPOCH          = 2026-03-13T08:39:47.137536
MEAN_MOTION    = 15.34814668
ECCENTRICITY   = .00110324
INCLINATION    = 51.8796
RA_OF_ASC_NODE = 201.6710
ARG_OF_PERICENTER = 70.2109
MEAN_ANOMALY   = 290.0065

EPHEMERIS_TYPE = 0
CLASSIFICATION_TYPE = U
NORAD_CAT_ID   = 67791
ELEMENT_SET_NO = 999
REV_AT_EPOCH   = 565
BSTAR          = .94674375E-3
MEAN_MOTION_DOT = .32258E-3
MEAN_MOTION_DDOT = 0

CCSDS_OMM_VERS = 2.0
CREATION_DATE  = 
ORIGINATOR     = 

OBJECT_NAME    = KUIPER-00274
OBJECT_ID      = 2026-030AE
CENTER_NAME    = EARTH
REF_FRAME      = TEME
TIME_SYSTEM    = UTC
MEAN_ELEMENT_THEORY = SGP/SGP4

EPOCH          = 2026-03-13T08:16:51.481920
MEAN_MOTION    = 15.29804039
ECCENTRICITY   = .00178541
INCLINATION    = 51.8859
RA_OF_ASC_NODE = 202.3067
ARG_OF_PERICENTER = 81.6477
MEAN_ANOMALY   = 278.6530

EPHEMERIS_TYPE = 0
CLASSIFICATION_TYPE = U
NORAD_CAT_ID   = 67792
ELEMENT_SET_NO = 999
REV_AT_EPOCH   = 564
BSTAR          = .95235435E-3
MEAN_MOTION_DOT = .27756E-3
MEAN_MOTION_DDOT = 0

CCSDS_OMM_VERS = 2.0
CREATION_DATE  = 
ORIGINATOR     = 

OBJECT_NAME    = KUIPER-00275
OBJECT_ID      = 2026-030AF
CENTER_NAME    = EARTH
REF_FRAME      = TEME
TIME_SYSTEM    = UTC
MEAN_ELEMENT_THEORY = SGP/SGP4

EPOCH          = 2026-03-13T08:35:21.317568
MEAN_MOTION    = 15.34934562
ECCENTRICITY   = .00096618
INCLINATION    = 51.8829
RA_OF_ASC_NODE = 201.6618
ARG_OF_PERICENTER = 66.3277
MEAN_ANOMALY   = 293.8722

EPHEMERIS_TYPE = 0
CLASSIFICATION_TYPE = U
NORAD_CAT_ID   = 67793
ELEMENT_SET_NO = 999
REV_AT_EPOCH   = 565
BSTAR          = .92109132E-3
MEAN_MOTION_DOT = .31478E-3
MEAN_MOTION_DDOT = 0

CCSDS_OMM_VERS = 2.0
CREATION_DATE  = 
ORIGINATOR     = 

OBJECT_NAME    = KUIPER-00276
OBJECT_ID      = 2026-030AG
CENTER_NAME    = EARTH
REF_FRAME      = TEME
TIME_SYSTEM    = UTC
MEAN_ELEMENT_THEORY = SGP/SGP4

EPOCH          = 2026-03-12T15:06:16.520832
MEAN_MOTION    = 15.30148532
ECCENTRICITY   = .0018967
INCLINATION    = 51.8837
RA_OF_ASC_NODE = 205.7554
ARG_OF_PERICENTER = 76.1812
MEAN_ANOMALY   = 284.1281

EPHEMERIS_TYPE = 0
CLASSIFICATION_TYPE = U
NORAD_CAT_ID   = 67794
ELEMENT_SET_NO = 999
REV_AT_EPOCH   = 553
BSTAR          = .97231E-3
MEAN_MOTION_DOT = .28673E-3
MEAN_MOTION_DDOT = 0

CCSDS_OMM_VERS = 2.0
CREATION_DATE  = 
ORIGINATOR     = 

OBJECT_NAME    = KUIPER-00279
OBJECT_ID      = 2026-030AH
CENTER_NAME    = EARTH
REF_FRAME      = TEME
TIME_SYSTEM    = UTC
MEAN_ELEMENT_THEORY = SGP/SGP4

EPOCH          = 2026-03-13T08:20:35.782368
MEAN_MOTION    = 15.35584203
ECCENTRICITY   = .00065444
INCLINATION    = 51.8780
RA_OF_ASC_NODE = 201.5831
ARG_OF_PERICENTER = 54.6278
MEAN_ANOMALY   = 305.5319

EPHEMERIS_TYPE = 0
CLASSIFICATION_TYPE = U
NORAD_CAT_ID   = 67795
ELEMENT_SET_NO = 999
REV_AT_EPOCH   = 565
BSTAR          = .8272744E-3
MEAN_MOTION_DOT = .28798E-3
MEAN_MOTION_DDOT = 0

CCSDS_OMM_VERS = 2.0
CREATION_DATE  = 
ORIGINATOR     = 

OBJECT_NAME    = CREW DRAGON 12
OBJECT_ID      = 2026-031A
CENTER_NAME    = EARTH
REF_FRAME      = TEME
TIME_SYSTEM    = UTC
MEAN_ELEMENT_THEORY = SGP/SGP4

EPOCH          = 2026-03-13T09:14:46.936608
MEAN_MOTION    = 15.48625615
ECCENTRICITY   = .00079096
INCLINATION    = 51.6324
RA_OF_ASC_NODE = 54.0842
ARG_OF_PERICENTER = 188.2233
MEAN_ANOMALY   = 171.8627

EPHEMERIS_TYPE = 0
CLASSIFICATION_TYPE = U
NORAD_CAT_ID   = 67796
ELEMENT_SET_NO = 999
REV_AT_EPOCH   = 55680
BSTAR          = .19895216E-3
MEAN_MOTION_DOT = .10392E-3
MEAN_MOTION_DDOT = 0

CCSDS_OMM_VERS = 2.0
CREATION_DATE  = 
ORIGINATOR     = 

OBJECT_NAME    = STARLINK-36800
OBJECT_ID      = 2026-032A
CENTER_NAME    = EARTH
REF_FRAME      = TEME
TIME_SYSTEM    = UTC
MEAN_ELEMENT_THEORY = SGP/SGP4

EPOCH          = 2026-03-13T13:38:55.585824
MEAN_MOTION    = 15.75218489
ECCENTRICITY   = .00012926
INCLINATION    = 97.2845
RA_OF_ASC_NODE = 259.2415
ARG_OF_PERICENTER = 78.8076
MEAN_ANOMALY   = 281.3335

EPHEMERIS_TYPE = 0
CLASSIFICATION_TYPE = U
NORAD_CAT_ID   = 67797
ELEMENT_SET_NO = 999
REV_AT_EPOCH   = 539
BSTAR          = .52891514E-3
MEAN_MOTION_DOT = .79598E-3
MEAN_MOTION_DDOT = 0

CCSDS_OMM_VERS = 2.0
CREATION_DATE  = 
ORIGINATOR     = 

OBJECT_NAME    = STARLINK-36798
OBJECT_ID      = 2026-032B
CENTER_NAME    = EARTH
REF_FRAME      = TEME
TIME_SYSTEM    = UTC
MEAN_ELEMENT_THEORY = SGP/SGP4

EPOCH          = 2026-03-13T14:47:02.913216
MEAN_MOTION    = 15.75229138
ECCENTRICITY   = .00012582
INCLINATION    = 97.2842
RA_OF_ASC_NODE = 259.3309
ARG_OF_PERICENTER = 93.8863
MEAN_ANOMALY   = 266.2546

EPHEMERIS_TYPE = 0
CLASSIFICATION_TYPE = U
NORAD_CAT_ID   = 67798
ELEMENT_SET_NO = 999
REV_AT_EPOCH   = 540
BSTAR          = .79252195E-3
MEAN_MOTION_DOT = .119956E-2
MEAN_MOTION_DDOT = 0

CCSDS_OMM_VERS = 2.0
CREATION_DATE  = 
ORIGINATOR     = 

OBJECT_NAME    = STARLINK-36804
OBJECT_ID      = 2026-032C
CENTER_NAME    = EARTH
REF_FRAME      = TEME
TIME_SYSTEM    = UTC
MEAN_ELEMENT_THEORY = SGP/SGP4

EPOCH          = 2026-03-13T13:36:24.249312
MEAN_MOTION    = 15.75257484
ECCENTRICITY   = .00014459
INCLINATION    = 97.2844
RA_OF_ASC_NODE = 259.2437
ARG_OF_PERICENTER = 83.3971
MEAN_ANOMALY   = 276.7459

EPHEMERIS_TYPE = 0
CLASSIFICATION_TYPE = U
NORAD_CAT_ID   = 67799
ELEMENT_SET_NO = 999
REV_AT_EPOCH   = 539
BSTAR          = .13414449E-2
MEAN_MOTION_DOT = .205441E-2
MEAN_MOTION_DDOT = 0

CCSDS_OMM_VERS = 2.0
CREATION_DATE  = 
ORIGINATOR     = 

OBJECT_NAME    = STARLINK-36354
OBJECT_ID      = 2026-032D
CENTER_NAME    = EARTH
REF_FRAME      = TEME
TIME_SYSTEM    = UTC
MEAN_ELEMENT_THEORY = SGP/SGP4

EPOCH          = 2026-03-13T13:20:39.111936
MEAN_MOTION    = 15.75222619
ECCENTRICITY   = .00015738
INCLINATION    = 97.2843
RA_OF_ASC_NODE = 259.2609
ARG_OF_PERICENTER = 88.4045
MEAN_ANOMALY   = 271.7401

EPHEMERIS_TYPE = 0
CLASSIFICATION_TYPE = U
NORAD_CAT_ID   = 67800
ELEMENT_SET_NO = 999
REV_AT_EPOCH   = 539
BSTAR          = .657931E-3
MEAN_MOTION_DOT = .99294E-3
MEAN_MOTION_DDOT = 0

