KUIPER-00266            
1 67789U 26030AB  26072.35247049  .00029700  00000+0  98697-3 0  9998
2 67789  51.8821 202.3428 0023142  86.9135 273.4497 15.30698300  5645
KUIPER-00268            
1 67790U 26030AC  26071.74945827  .00035710  00000+0  10036-2 0  9999
2 67790  51.8845 204.3408 0002579  44.1237 315.9955 15.36176538  5565
KUIPER-00270            
1 67791U 26030AD  26072.36096224  .00032258  00000+0  94674-3 0  9992
2 67791  51.8796 201.6710 0011032  70.2109 290.0065 15.34814668  5655
KUIPER-00274            
1 67792U 26030AE  26072.34504030  .00027756  00000+0  95235-3 0  9991
2 67792  51.8859 202.3067 0017854  81.6477 278.6530 15.29804039  5644
KUIPER-00275            
1 67793U 26030AF  26072.35788562  .00031478  00000+0  92109-3 0  9990
2 67793  51.8829 201.6618 0009661  66.3277 293.8722 15.34934562  5655
KUIPER-00276            
1 67794U 26030AG  26071.62935788  .00028673  00000+0  97231-3 0  9998
2 67794  51.8837 205.7554 0018967  76.1812 284.1281 15.30148532  5532
KUIPER-00279            
1 67795U 26030AH  26072.34763637  .00028798  00000+0  82727-3 0  9993
2 67795  51.8780 201.5831 0006544  54.6278 305.5319 15.35584203  5654
CREW DRAGON 12          
1 67796U 26031A   26072.38526547  .00010392  00000+0  19895-3 0  9993
2 67796  51.6324  54.0842 0007909 188.2233 171.8627 15.48625615556802
STARLINK-36800          
1 67797U 26032A   26072.56869891  .00079598  00000+0  52892-3 0  9994
2 67797  97.2845 259.2415 0001292  78.8076 281.3335 15.75218489  5393
STARLINK-36798          
1 67798U 26032B   26072.61600594  .00119956  00000+0  79252-3 0  9996
2 67798  97.2842 259.3309 0001258  93.8863 266.2546 15.75229138  5408
STARLINK-36804          
1 67799U 26032C   26072.56694733  .00205441  00000+0  13414-2 0  9991
2 67799  97.2844 259.2437 0001445  83.3971 276.7459 15.75257484  5396
STARLINK-36354          
1 67800U 26032D   26072.55600824  .00099294  00000+0  65793-3 0  9996
2 67800  97.2843 259.2609 0001573  88.4045 271.7401 15.75222619  5393
